STARLINK-1063           
1 44768U 19074BH  26068.75225384 -.00812325  00000+0 -29858-1 0  9993
2 44768  53.1603 219.1040 0001219  60.1573 299.9548 15.29959368348324
MAUVE                   
1 66756U 25276CU  26068.71857583  .00008348  00000+0  39937-3 0  9994
2 66756  97.4273 144.0489 0000577 359.2470   0.8764 15.19228326 15328
